HAWK-5A                 
1 52757U 22057AB  26193.19180800  .00011271  00000+0  18733-3 0  9996
2 52757  97.6614 353.6747 0003623 350.6728   9.4455 15.52252633230221
HAWK-6B                 
1 55324U 23011A   26193.16583081  .00002526  00000+0  11290-3 0  9999
2 55324  40.4968 206.3557 0003710 225.1230 134.9278 15.23137009191653
HAWK-6C                 
1 55326U 23011C   26193.16520410  .00002626  00000+0  11704-3 0  9999
2 55326  40.4958 203.1946 0004240 215.6747 144.3779 15.23138942191666
HAWK-6A                 
1 55327U 23011D   26192.50956735  .00002662  00000+0  11852-3 0  9994
2 55327  40.4966 208.6476 0003628 209.4630 150.5976 15.23134269191560
HAWK-7A                 
1 56191U 23054P   26193.13489727  .00003337  00000+0  12630-3 0  9998
2 56191  97.2674  79.8384 0001743 348.6423  11.4777 15.27612851180838
HAWK-7B                 
1 56193U 23054R   26193.13482514  .00003139  00000+0  11895-3 0  9999
2 56193  97.2699  78.1110 0001658  23.0860 337.0453 15.27610043180839
HAWK-7C                 
1 56200U 23054Y   26193.06920338  .00003368  00000+0  12745-3 0  9990
2 56200  97.2676  78.8079 0001217   6.7020 353.4236 15.27613708180822
