OBJECT_NAME,OBJECT_ID,EPOCH,MEAN_MOTION,ECCENTRICITY,INCLINATION,RA_OF_ASC_NODE,ARG_OF_PERICENTER,MEAN_ANOMALY,EPHEMERIS_TYPE,CLASSIFICATION_TYPE,NORAD_CAT_ID,ELEMENT_SET_NO,REV_AT_EPOCH,BSTAR,MEAN_MOTION_DOT,MEAN_MOTION_DDOT
HAWK-5A,2022-057AB,2026-07-12T04:36:12.211200,15.52252633,.0003623,97.6614,353.6747,350.6728,9.4455,0,U,52757,999,23022,.18733E-3,.11271E-3,0
HAWK-6B,2023-011A,2026-07-12T03:58:47.781984,15.23137009,.000371,40.4968,206.3557,225.1230,134.9278,0,U,55324,999,19165,.1129E-3,.2526E-4,0
HAWK-6C,2023-011C,2026-07-12T03:57:53.634240,15.23138942,.000424,40.4958,203.1946,215.6747,144.3779,0,U,55326,999,19166,.11704E-3,.2626E-4,0
HAWK-6A,2023-011D,2026-07-11T12:13:46.619040,15.23134269,.00036281,40.4966,208.6476,209.4630,150.5976,0,U,55327,999,19156,.11852197E-3,.2662E-4,0
HAWK-7A,2023-054P,2026-07-12T03:14:15.124128,15.27612851,.0001743,97.2674,79.8384,348.6423,11.4777,0,U,56191,999,18083,.1263E-3,.3337E-4,0
HAWK-7B,2023-054R,2026-07-12T03:14:08.892096,15.27610043,.0001658,97.2699,78.1110,23.0860,337.0453,0,U,56193,999,18083,.11895E-3,.3139E-4,0
HAWK-7C,2023-054Y,2026-07-12T01:39:39.172032,15.27613708,.0001217,97.2676,78.8079,6.7020,353.4236,0,U,56200,999,18082,.12745E-3,.3368E-4,0
